COMMENT,ORIGINATOR,NORAD_CAT_ID,OBJECT_NAME,OBJECT_TYPE,CLASSIFICATION_TYPE,INTLDES,EPOCH,EPOCH_MICROSECONDS,MEAN_MOTION,ECCENTRICITY,INCLINATION,RA_OF_ASC_NODE,ARG_OF_PERICENTER,MEAN_ANOMALY,EPHEMERIS_TYPE,ELEMENT_SET_NO,REV_AT_EPOCH,BSTAR,MEAN_MOTION_DOT,MEAN_MOTION_DDOT,FILE,TLE_LINE0,TLE_LINE1,TLE_LINE2,OBJECT_ID,OBJECT_NUMBER,SEMIMAJOR_AXIS,PERIOD,APOGEE,PERIGEE,DECAYED
GENERATED VIA SPACETRACK.ORG API,18 SPCS,51976,STARLINK-3663,PAYLOAD,U,22025W,2023-06-29 03:50:25,181088,15.08844477,0.0001238,53.2166,138.8515,91.6819,268.4315,0,999,7354,5.1696e-05,5.35e-06,0.0,3945558,0 STARLINK-3663,1 51976U 22025W   23180.16001367  .00000535  00000-0  51696-4 0  9991,2 51976  53.2166 138.8515 0001238  91.6819 268.4315 15.08844477 73548,2022-025W,51976,6917.867,95.437,540.588,538.875,0
GENERATED VIA SPACETRACK.ORG API,18 SPCS,51976,STARLINK-3663,PAYLOAD,U,22025W,2023-06-30 06:51:58,709088,15.08841872,0.0001277,53.2177,133.7981,89.6606,270.4532,0,999,7371,3.3011e-05,2.38e-06,0.0,3946332,0 STARLINK-3663,1 51976U 22025W   23181.28609617  .00000238  00000-0  33011-4 0  9998,2 51976  53.2177 133.7981 0001277  89.6606 270.4532 15.08841872 73714,2022-025W,51976,6917.875,95.437,540.623,538.856,0
GENERATED VIA SPACETRACK.ORG API,18 SPCS,51976,STARLINK-3663,PAYLOAD,U,22025W,2023-07-01 01:56:37,214592,15.08836335,0.0001217,53.2165,130.2263,94.4934,265.6197,0,999,7383,-0.00010748,-1.998e-05,0.0,3946619,0 STARLINK-3663,1 51976U 22025W   23182.08098628 -.00001998  00000-0 -10748-3 0  9998,2 51976  53.2165 130.2263 0001217  94.4934 265.6197 15.08836335 73832,2022-025W,51976,6917.892,95.438,540.598,538.915,0
GENERATED VIA SPACETRACK.ORG API,18 SPCS,51976,STARLINK-3663,PAYLOAD,U,22025W,2023-07-02 06:33:33,448320,15.08841289,0.000115,53.2173,124.8791,93.5234,266.589,0,999,7401,1.1257e-05,-1.09e-06,0.0,3947756,0 STARLINK-3663,1 51976U 22025W   23183.27330380 -.00000109  00000-0  11257-4 0  9993,2 51976  53.2173 124.8791 0001150  93.5234 266.5890 15.08841289 74010,2022-025W,51976,6917.876,95.437,540.537,538.946,0
GENERATED VIA SPACETRACK.ORG API,18 SPCS,51976,STARLINK-3663,PAYLOAD,U,22025W,2023-07-03 12:45:53,244864,15.08838338,0.0001185,53.2176,119.2293,95.2717,264.8411,0,999,7420,6.6105e-05,7.64e-06,0.0,3948876,0 STARLINK-3663,1 51976U 22025W   23184.53186626  .00000764  00000-0  66105-4 0  9993,2 51976  53.2176 119.2293 0001185  95.2717 264.8411 15.08838338 74203,2022-025W,51976,6917.885,95.438,540.57,538.931,0
GENERATED VIA SPACETRACK.ORG API,18 SPCS,51976,STARLINK-3663,PAYLOAD,U,22025W,2023-07-05 01:19:45,511968,15.08842472,0.0001248,53.2172,112.3892,87.9478,272.1657,0,999,7443,7.6326e-07,-2.76e-06,0.0,3949939,0 STARLINK-3663,1 51976U 22025W   23186.05538787 -.00000276  00000-0  76326-6 0  9998,2 51976  53.2172 112.3892 0001248  87.9478 272.1657 15.08842472 74433,2022-025W,51976,6917.873,95.437,540.601,538.874,0
GENERATED VIA SPACETRACK.ORG API,18 SPCS,51976,STARLINK-3663,PAYLOAD,U,22025W,2023-07-06 04:21:18,421344,15.08844047,0.0001223,53.217,107.3333,91.8952,268.218,0,999,7460,6.414e-05,7.33e-06,0.0,3951101,0 STARLINK-3663,1 51976U 22025W   23187.18146321  .00000733  00000-0  64140-4 0  9998,2 51976  53.2170 107.3333 0001223  91.8952 268.2180 15.08844047 74605,2022-025W,51976,6917.868,95.437,540.579,538.887,0
GENERATED VIA SPACETRACK.ORG API,18 SPCS,51976,STARLINK-3663,PAYLOAD,U,22025W,2023-07-07 04:12:05,788800,15.08840604,0.0001094,53.2164,102.8731,84.9506,275.1611,0,999,7475,2.3037e-05,7.9e-07,0.0,3951715,0 STARLINK-3663,1 51976U 22025W   23188.17506700  .00000079  00000-0  23037-4 0  9992,2 51976  53.2164 102.8731 0001094  84.9506 275.1611 15.08840604 74751,2022-025W,51976,6917.879,95.438,540.5,538.987,0
GENERATED VIA SPACETRACK.ORG API,18 SPCS,51976,STARLINK-3663,PAYLOAD,U,22025W,2023-07-08 18:21:21,758688,15.08831046,0.0001273,53.2169,95.7368,98.7848,261.3288,0,999,7499,-3.2428e-05,-8.04e-06,0.0,3953210,0 STARLINK-3663,1 51976U 22025W   23189.76483517 -.00000804  00000-0 -32428-4 0  9990,2 51976  53.2169  95.7368 0001273  98.7848 261.3288 15.08831046 74996,2022-025W,51976,6917.908,95.438,540.653,538.892,0
GENERATED VIA SPACETRACK.ORG API,18 SPCS,51976,STARLINK-3663,PAYLOAD,U,22025W,2023-07-10 02:09:04,251456,15.08841113,0.0001043,53.2182,89.7913,96.7126,263.3985,0,999,7519,1.2821e-05,-8.4e-07,0.0,3954302,0 STARLINK-3663,1 51976U 22025W   23191.08963254 -.00000084  00000-0  12821-4 0  9993,2 51976  53.2182  89.7913 0001043  96.7126 263.3985 15.08841113 75197,2022-025W,51976,6917.877,95.437,540.464,539.02,0
GENERATED VIA SPACETRACK.ORG API,18 SPCS,51976,STARLINK-3663,PAYLOAD,U,22025W,2023-07-11 22:39:52,363584,15.08840278,0.0001009,53.2187,81.4652,93.515,266.5957,0,999,7547,1.1971e-05,-9.7e-07,0.0,3955891,0 STARLINK-3663,1 51976U 22025W   23192.94435606 -.00000097  00000-0  11971-4 0  9993,2 51976  53.2187  81.4652 0001009  93.5150 266.5957 15.08840278 75471,2022-025W,51976,6917.88,95.438,540.443,539.047,0
GENERATED VIA SPACETRACK.ORG API,18 SPCS,51976,STARLINK-3663,PAYLOAD,U,22025W,2023-07-13 22:21:26,288064,15.08844412,0.0001012,53.218,72.5427,90.8187,269.2921,0,999,7577,-1.0322e-05,-4.52e-06,0.0,3957333,0 STARLINK-3663,1 51976U 22025W   23194.93155426 -.00000452  00000-0 -10322-4 0  9998,2 51976  53.2180  72.5427 0001012  90.8187 269.2921 15.08844412 75777,2022-025W,51976,6917.867,95.437,540.432,539.032,0
GENERATED VIA SPACETRACK.ORG API,18 SPCS,51976,STARLINK-3663,PAYLOAD,U,22025W,2023-07-15 01:22:58,776672,15.08854518,0.0001022,53.2176,67.4881,80.8485,279.2623,0,999,7594,6.2903e-05,7.14e-06,0.0,3958344,0 STARLINK-3663,1 51976U 22025W   23196.05762473  .00000714  00000-0  62903-4 0  9990,2 51976  53.2176  67.4881 0001022  80.8485 279.2623 15.08854518 75947,2022-025W,51976,6917.836,95.437,540.408,538.994,0
GENERATED VIA SPACETRACK.ORG API,18 SPCS,51976,STARLINK-3663,PAYLOAD,U,22025W,2023-07-15 22:03:00,642816,15.08837731,0.0001079,53.218,63.6236,98.33,261.7814,0,999,7607,1.6802e-05,-2e-07,0.0,3959228,0 STARLINK-3663,1 51976U 22025W   23196.91875744 -.00000020  00000-0  16802-4 0  9999,2 51976  53.2180  63.6236 0001079  98.3300 261.7814 15.08837731 76077,2022-025W,51976,6917.887,95.438,540.499,539.006,0
GENERATED VIA SPACETRACK.ORG API,18 SPCS,51976,STARLINK-3663,PAYLOAD,U,22025W,2023-07-16 23:29:11,193792,15.08837712,0.0001197,53.2189,58.8668,102.3255,257.7872,0,999,7623,-8.2163e-06,-4.19e-06,0.0,3959976,0 STARLINK-3663,1 51976U 22025W   23197.97860178 -.00000419  00000-0 -82163-5 0  9998,2 51976  53.2189  58.8668 0001197 102.3255 257.7872 15.08837712 76233,2022-025W,51976,6917.887,95.438,540.58,538.924,0
GENERATED VIA SPACETRACK.ORG API,18 SPCS,51976,STARLINK-3663,PAYLOAD,U,22025W,2023-07-18 00:55:20,554176,15.08848067,0.0001111,53.2188,54.1071,98.4904,261.6214,0,999,7639,0.0001531,2.15e-05,0.0,3960929,0 STARLINK-3663,1 51976U 22025W   23199.03843234  .00002150  00000-0  15310-3 0  9991,2 51976  53.2188  54.1071 0001111  98.4904 261.6214 15.08848067 76397,2022-025W,51976,6917.856,95.437,540.489,538.952,0
GENERATED VIA SPACETRACK.ORG API,18 SPCS,51976,STARLINK-3663,PAYLOAD,U,22025W,2023-07-18 16:49:12,998496,15.08832864,0.0001226,53.2193,51.1325,104.3427,255.7702,0,999,7649,6.8944e-05,8.09e-06,0.0,3961498,0 STARLINK-3663,1 51976U 22025W   23199.70084489  .00000809  00000-0  68944-4 0  9995,2 51976  53.2193  51.1325 0001226 104.3427 255.7702 15.08832864 76491,2022-025W,51976,6917.902,95.438,540.615,538.919,0
GENERATED VIA SPACETRACK.ORG API,18 SPCS,51976,STARLINK-3663,PAYLOAD,U,22025W,2023-07-18 19:59:58,996608,15.0883991,0.0001183,53.219,50.538,100.9642,259.1484,0,999,7651,4.6424e-05,4.51e-06,0.0,3962089,0 STARLINK-3663,1 51976U 22025W   23199.83332172  .00000451  00000-0  46424-4 0  9996,2 51976  53.2190  50.5380 0001183 100.9642 259.1484 15.08839910 76512,2022-025W,51976,6917.881,95.438,540.564,538.927,0
GENERATED VIA SPACETRACK.ORG API,18 SPCS,51976,STARLINK-3663,PAYLOAD,U,22025W,2023-07-19 18:15:23,453568,15.0883661,0.0001211,53.2188,46.3766,88.2181,271.895,0,999,7665,-3.8248e-07,-2.94e-06,0.0,3962356,0 STARLINK-3663,1 51976U 22025W   23200.76068812 -.00000294  00000-0 -38248-6 0  9992,2 51976  53.2188  46.3766 0001211  88.2181 271.8950 15.08836610 76656,2022-025W,51976,6917.891,95.438,540.594,538.918,0
GENERATED VIA SPACETRACK.ORG API,18 SPCS,51976,STARLINK-3663,PAYLOAD,U,22025W,2023-07-20 22:52:19,200000,15.08845689,0.0001292,53.2184,41.0251,76.8104,283.3032,0,999,7683,0.0001203,1.627e-05,0.0,3963245,0 STARLINK-3663,1 51976U 22025W   23201.95300000  .00001627  00000-0  12030-3 0  9999,2 51976  53.2184  41.0251 0001292  76.8104 283.3032 15.08845689 76835,2022-025W,51976,6917.863,95.437,540.622,538.834,0
GENERATED VIA SPACETRACK.ORG API,18 SPCS,51976,STARLINK-3663,PAYLOAD,U,22025W,2023-07-21 13:10:47,760096,15.08840751,0.0001024,53.2188,38.3455,111.1447,248.9654,0,999,7692,4.3378e-05,4.03e-06,0.0,3963730,0 STARLINK-3663,1 51976U 22025W   23202.54916389  .00000403  00000-0  43378-4 0  9999,2 51976  53.2188  38.3455 0001024 111.1447 248.9654 15.08840751 76922,2022-025W,51976,6917.878,95.438,540.451,539.035,0
GENERATED VIA SPACETRACK.ORG API,18 SPCS,51976,STARLINK-3663,PAYLOAD,U,22025W,2023-07-24 12:43:09,498720,15.08835397,0.000143,53.2193,24.9673,50.6506,309.4612,0,999,7626,0.00010848,1.439e-05,0.0,3963756,0 STARLINK-3663,1 51976U 22025W   23205.52997105  .00001439  00000-0  10848-3 0  9990,2 51976  53.2193  24.9673 0001430  50.6506 309.4612 15.08835397 76269,2022-025W,51976,6917.894,95.438,540.749,538.77,0
GENERATED VIA SPACETRACK.ORG API,18 SPCS,51976,STARLINK-3663,PAYLOAD,U,22025W,2023-07-25 10:58:33,864960,15.08832972,0.0001694,53.2169,20.8049,60.0449,300.0711,0,999,7640,8.5383e-05,1.071e-05,0.0,3963759,0 STARLINK-3663,1 51976U 22025W   23206.45733640  .00001071  00000-0  85383-4 0  9994,2 51976  53.2169  20.8049 0001694  60.0449 300.0711 15.08832972 76406,2022-025W,51976,6917.902,95.438,540.939,538.595,0
